ASTROCAST-0401          
1 55110U 23001DF  26068.71172895  .00009750  00000+0  37868-3 0  9995
2 55110  97.5547 160.5206 0008142 188.4231 171.6872 15.26258462176022
STARLINK-32710          
1 62604U 25008T   26068.00560064  .00034734  00000+0  12656-2 0  9998
2 62604  43.0054 281.4422 0003349 264.1752  95.8718 15.27583206 65463
